[{"OBJECT_NAME":"STARLINK-4095","OBJECT_ID":"2022-083AQ","EPOCH":"2026-03-09T12:28:17.094720","MEAN_MOTION":15.08837297,"ECCENTRICITY":0.00010123,"INCLINATION":53.2172,"RA_OF_ASC_NODE":159.8384,"ARG_OF_PERICENTER":61.3287,"MEAN_ANOMALY":298.7807,"EPHEMERIS_TYPE":0,"CLASSIFICATION_TYPE":"U","NORAD_CAT_ID":53170,"ELEMENT_SET_NO":999,"REV_AT_EPOCH":20140,"BSTAR":-8.642716e-6,"MEAN_MOTION_DOT":-4.25e-6,"MEAN_MOTION_DDOT":0},{"OBJECT_NAME":"FENGYUN 1C DEB","OBJECT_ID":"1999-025CMN","EPOCH":"2026-03-08T02:55:26.099904","MEAN_MOTION":14.79998797,"ECCENTRICITY":0.01585695,"INCLINATION":99.2491,"RA_OF_ASC_NODE":174.5116,"ARG_OF_PERICENTER":31.4432,"MEAN_ANOMALY":329.6136,"EPHEMERIS_TYPE":0,"CLASSIFICATION_TYPE":"U","NORAD_CAT_ID":31937,"ELEMENT_SET_NO":999,"REV_AT_EPOCH":67331,"BSTAR":0.0010230441,"MEAN_MOTION_DOT":9.525e-5,"MEAN_MOTION_DDOT":0}]
